ORBCOMM FM05 [-]        
1 25117U 97084F   23356.33948353  .00002783  00000+0  88550-3 0  9999
2 25117  45.0158  85.6752 0001311 327.0203  33.0565 14.41888644362154
ORBCOMM FM06 [+]        
1 25118U 97084G   23356.38959990  .00003142  00000+0  99474-3 0  9991
2 25118  45.0161  85.6129 0000917 286.1418 187.5445 14.41859397363078
ORBCOMM FM07 [-]        
1 25119U 97084H   23355.38206082  .00002860  00000+0  91048-3 0  9993
2 25119  45.0140  90.8839 0002189 317.0913  42.9766 14.41793503362928
ORBCOMM FM03 [-]        
1 25158U 98007B   23356.93610950  .00001983  00000+0  78324-3 0  9994
2 25158 107.9733 104.0858 0045733 117.4558 243.1241 14.31617828346362
ORBCOMM FM17 [-]        
1 25413U 98046A   23355.93065671  .00001502  00000+0  59889-3 0  9996
2 25413  44.9959 296.2571 0003382 349.1736  10.9037 14.32628773325203
ORBCOMM FM18 [-]        
1 25414U 98046B   23356.74391129  .00001939  00000+0  72040-3 0  9995
2 25414  44.9930 222.4008 0004694  67.9604 292.1741 14.35228136326237
ORBCOMM FM19 [+]        
1 25415U 98046C   23356.78744497  .00001770  00000+0  66385-3 0  9998
2 25415  44.9937 223.4248 0003558  59.6273  61.5548 14.35079920326205
